{"type":"FeatureCollection","features":[{"type":"Feature","geometry":{"type":"Polygon","coordinates":[[[-77.12795231773622,38.95048981488162],[-77.12812278458657,38.94984089637736],[-77.12769923521324,38.94977560337111],[-77.12778446931006,38.94945114434769],[-77.12736092250772,38.94938585018996],[-77.127446157656,38.94906139141708],[-77.12707453414787,38.9490041005028],[-77.1271567134713,38.948974956758995],[-77.12760260638525,38.94890780752823],[-77.12804810251454,38.94897648490435],[-77.12842538129561,38.949170533733785],[-77.12867700635057,38.94946041268969],[-77.12876200594731,38.94986033910731],[-77.12860733601376,38.950247821330535],[-77.12825634643323,38.95053668202354],[-77.12795231773622,38.95048981488162]]]},"properties":{"lid":"BRKM2_minor_10ft","stage_ft":10.0,"buffer_m":100,"site_id":"01646500","level":"minor"}}]}