{"type":"FeatureCollection","features":[{"type":"Feature","geometry":{"type":"Polygon","coordinates":[[[-77.02899258116757,39.06485806896581],[-77.02941671224728,39.064923700152114],[-77.02933090368062,39.06524809744433],[-77.02975503734169,39.06531372748036],[-77.0296692298245,39.06563812502889],[-77.03009336606695,39.065703753914605],[-77.02991252169119,39.06630148565948],[-77.02949761249238,39.06628692000488],[-77.02947020328587,39.06639053872798],[-77.02902141668885,39.06634391864831],[-77.02862798402334,39.06616886970896],[-77.02835208687202,39.065891990859235],[-77.02823348034755,39.06549707590697],[-77.02835547374343,39.06510276510295],[-77.02863373620033,39.064827276854494],[-77.02904766053011,39.06464984576436],[-77.02899258116757,39.06485806896581]]]},"properties":{"lid":"CLAM2_major_19ft","stage_ft":19.0,"buffer_m":100,"site_id":"01650500","level":"major"}}]}