{"type":"FeatureCollection","features":[{"type":"Feature","geometry":{"type":"Polygon","coordinates":[[[-77.02899258116757,39.06485806896581],[-77.02890677078547,39.06518246596129],[-77.02975503734169,39.06531372748036],[-77.02949761249238,39.06628692000488],[-77.02864328255207,39.06617853677147],[-77.02827223731342,39.06572809578155],[-77.02825664188947,39.06532307133079],[-77.02843220098374,39.06500188607789],[-77.02866552219773,39.06480745791032],[-77.02899258116757,39.06485806896581]]]},"properties":{"lid":"CLAM2_moderate_12ft","stage_ft":12.0,"buffer_m":100,"site_id":"01650500","level":"moderate"}}]}