{"type":"FeatureCollection","features":[{"type":"Feature","geometry":{"type":"Polygon","coordinates":[[[-77.03968614237802,38.97264136879875],[-77.03926253983693,38.972575773664424],[-77.03943384914045,38.971926975213904],[-77.0398574480596,38.97199256975708],[-77.0399587689369,38.9716088239636],[-77.0403779678461,38.971656060943104],[-77.04078016121666,38.97183774192682],[-77.04044769938673,38.973096954778306],[-77.04079593674486,38.97315087583473],[-77.04014841902197,38.97338492836603],[-77.03950988770288,38.973308899285364],[-77.03968614237802,38.97264136879875]]]},"properties":{"lid":"RCKD2_moderate_10ft","stage_ft":10.0,"buffer_m":100,"site_id":"01648000","level":"moderate"}}]}