{"type":"FeatureCollection","features":[{"type":"Feature","geometry":{"type":"Polygon","coordinates":[[[-77.04070464818864,38.972123754507486],[-77.04044769938673,38.973096954778306],[-77.04079593674486,38.97315087583473],[-77.04014841902197,38.97338492836603],[-77.03950988770288,38.973308899285364],[-77.03960048839183,38.97296576825456],[-77.03917688403978,38.972900172824644],[-77.03943384914045,38.971926975213904],[-77.0398574480596,38.97199256975708],[-77.0399587689369,38.9716088239636],[-77.04023089360442,38.97162549978447],[-77.04077091784535,38.97183106995446],[-77.04108846581329,38.97218318471005],[-77.04070464818864,38.972123754507486]]]},"properties":{"lid":"RCKD2_major_12ft","stage_ft":12.0,"buffer_m":100,"site_id":"01648000","level":"major"}}]}