{"type":"FeatureCollection","features":[{"type":"Feature","geometry":{"type":"Polygon","coordinates":[[[-76.92514699040376,38.960589594462995],[-76.92531928851834,38.95994095516349],[-76.92574271454701,38.96000693907705],[-76.92582886064426,38.95968261906348],[-76.92540543642409,38.95961663544702],[-76.92543059805502,38.95952190928228],[-76.92608124942187,38.95940997700813],[-76.92673112284689,38.95960596001824],[-76.92641728164398,38.96078754365317],[-76.9268407135927,38.96085352382771],[-76.92670508130432,38.961010185735695],[-76.92614700808792,38.96118506247555],[-76.9256207652602,38.96114358865166],[-76.92517274384316,38.960928119045384],[-76.92488177331998,38.96054826396991],[-76.92514699040376,38.960589594462995]]]},"properties":{"lid":"RVDM2_action_7ft","stage_ft":7.0,"buffer_m":100,"site_id":"01649500","level":"action"}}]}