{"type":"FeatureCollection","features":[{"type":"Feature","geometry":{"type":"Polygon","coordinates":[[[-76.92487617949388,38.96006532298087],[-76.92507897715764,38.959753781587985],[-76.92542198920367,38.95952539688494],[-76.92585299548706,38.95941493746462],[-76.92630638110002,38.95943921922069],[-76.92671312453862,38.95959454560353],[-76.92701130422707,38.959857270311474],[-76.92715552468121,38.96018739679732],[-76.92712382775251,38.960534666847934],[-76.92692103666525,38.96084621161859],[-76.92657802309846,38.961074600509875],[-76.92614700808792,38.96118506247555],[-76.92569361165364,38.9611607801309],[-76.92528686163854,38.96100545037035],[-76.92498868347084,38.960742721474084],[-76.92484447174385,38.96041259244289],[-76.92487617949388,38.96006532298087]]]},"properties":{"lid":"RVDM2_moderate_13ft","stage_ft":13.0,"buffer_m":100,"site_id":"01649500","level":"moderate"}}]}