{"type":"FeatureCollection","features":[{"type":"Feature","geometry":{"type":"MultiPolygon","coordinates":[[[[-76.94411925973628,38.900726843354796],[-76.94403326478607,38.901051173449346],[-76.94361016487318,38.90098525248891],[-76.94335217001044,38.901958241606515],[-76.94377527534103,38.902024163455664],[-76.94386127258845,38.90169983349979],[-76.94428437687887,38.90176575360931],[-76.94406375539914,38.90197323225719],[-76.94366951950923,38.902146030650435],[-76.94321902576318,38.90219002718008],[-76.94278086003956,38.90209852354387],[-76.94242173113606,38.901885450805004],[-76.94219631376569,38.901583248242105],[-76.94213892448003,38.9012379242444],[-76.94225829798815,38.90090205148946],[-76.94253625871741,38.90062676309555],[-76.94293048907358,38.90045396833947],[-76.94338097225821,38.90040997286803],[-76.94388614750511,38.90052921055683],[-76.94420559007222,38.90074029383299],[-76.94411925973628,38.900726843354796]]],[[[-76.94437037155463,38.90144142331097],[-76.9444405769915,38.901477705909706],[-76.94429119981633,38.901766816617574],[-76.94428437687887,38.90176575360931],[-76.94437037155463,38.90144142331097]]]]},"properties":{"lid":"WATD2_minor_10ft","stage_ft":10.0,"buffer_m":100,"site_id":"01651800","level":"minor"}}]}