{"type":"FeatureCollection","features":[{"type":"Feature","geometry":{"type":"Polygon","coordinates":[[[-76.94411925973628,38.900726843354796],[-76.94403326478607,38.901051173449346],[-76.94361016487318,38.90098525248891],[-76.94343816906378,38.90163391194688],[-76.94386127258845,38.90169983349979],[-76.94394726907012,38.90137550349768],[-76.94444599093627,38.901453204725776],[-76.94430553052241,38.901749314057234],[-76.94406375539914,38.90197323225719],[-76.94366951950923,38.902146030650435],[-76.94321902576318,38.90219002718008],[-76.94278086003956,38.90209852354387],[-76.94242173113606,38.901885450805004],[-76.94219631376569,38.901583248242105],[-76.94213892448003,38.9012379242444],[-76.94225829798815,38.90090205148946],[-76.94253625871741,38.90062676309555],[-76.94293048907358,38.90045396833947],[-76.94338097225821,38.90040997286803],[-76.94388614750511,38.90052921055683],[-76.94420559007222,38.90074029383299],[-76.94411925973628,38.900726843354796]]]},"properties":{"lid":"WATD2_moderate_12ft","stage_ft":12.0,"buffer_m":100,"site_id":"01651800","level":"moderate"}}]}